[{"OBJECT_NAME":"STARLINK-33759","OBJECT_ID":"2025-101P","EPOCH":"2026-03-09T03:20:32.528832","MEAN_MOTION":15.275816,"ECCENTRICITY":0.00019282,"INCLINATION":43.003,"RA_OF_ASC_NODE":0.8461,"ARG_OF_PERICENTER":252.9816,"MEAN_ANOMALY":107.0825,"EPHEMERIS_TYPE":0,"CLASSIFICATION_TYPE":"U","NORAD_CAT_ID":64007,"ELEMENT_SET_NO":999,"REV_AT_EPOCH":4697,"BSTAR":0.001419561,"MEAN_MOTION_DOT":0.0003901,"MEAN_MOTION_DDOT":0},{"OBJECT_NAME":"OBJECT BD","OBJECT_ID":"2025-313BD","EPOCH":"2026-03-09T15:06:44.992224","MEAN_MOTION":15.3000236,"ECCENTRICITY":0.00072867,"INCLINATION":97.397,"RA_OF_ASC_NODE":145.285,"ARG_OF_PERICENTER":333.4514,"MEAN_ANOMALY":26.6352,"EPHEMERIS_TYPE":0,"CLASSIFICATION_TYPE":"U","NORAD_CAT_ID":67299,"ELEMENT_SET_NO":999,"REV_AT_EPOCH":1083,"BSTAR":0.0027633805,"MEAN_MOTION_DOT":0.0008101,"MEAN_MOTION_DDOT":0}]
